[{"OBJECT_NAME":"JILIN-1 GAOFEN 2A","OBJECT_ID":"2019-075A","EPOCH":"2026-03-09T21:52:13.646784","MEAN_MOTION":15.36418896,"ECCENTRICITY":0.00077248,"INCLINATION":97.5004,"RA_OF_ASC_NODE":150.5825,"ARG_OF_PERICENTER":84.5784,"MEAN_ANOMALY":275.6341,"EPHEMERIS_TYPE":0,"CLASSIFICATION_TYPE":"U","NORAD_CAT_ID":44777,"ELEMENT_SET_NO":999,"REV_AT_EPOCH":34962,"BSTAR":0.00053427747,"MEAN_MOTION_DOT":0.00018939,"MEAN_MOTION_DDOT":0},{"OBJECT_NAME":"KUIPER-00199","OBJECT_ID":"2026-030H","EPOCH":"2026-03-09T20:22:54.746400","MEAN_MOTION":15.34402964,"ECCENTRICITY":0.00108419,"INCLINATION":51.8811,"RA_OF_ASC_NODE":218.632,"ARG_OF_PERICENTER":59.662,"MEAN_ANOMALY":300.5437,"EPHEMERIS_TYPE":0,"CLASSIFICATION_TYPE":"U","NORAD_CAT_ID":67771,"ELEMENT_SET_NO":999,"REV_AT_EPOCH":511,"BSTAR":0.0010339616,"MEAN_MOTION_DOT":0.00034812,"MEAN_MOTION_DDOT":0}]
